ONEWEB-0560             
1 55145U 23004F   25302.48606890  .00000120  00000+0  27133-3 0  9993
2 55145  87.9219  21.2942 0002094 104.4833 255.6532 13.18686527139307
ONEWEB-0565             
1 55146U 23004G   25302.93472969  .00000018  00000+0  12770-4 0  9990
2 55146  87.9210  21.2558 0002247  91.8434 268.2955 13.18686069139353
ONEWEB-0567             
1 55147U 23004H   25302.92813090  .00000008  00000+0 -11183-4 0  9991
2 55147  87.9219  21.2203 0002229  97.3179 262.8207 13.18686315139351
ONEWEB-0569             
1 55148U 23004J   25302.87561036  .00000170  00000+0  43099-3 0  9995
2 55148  87.9041   5.9784 0002801 104.0888 256.0553 13.13470386139945
ONEWEB-0570             
1 55149U 23004K   25302.91823460 -.00000033  00000+0 -11692-3 0  9997
2 55149  87.9217  21.2224 0001857  83.6925 276.4419 13.18686234139342
ONEWEB-0571             
1 55150U 23004L   25302.91163452  .00000006  00000+0 -18022-4 0  9991
2 55150  87.9214  21.2257 0003042  91.8434 268.3047 13.18687454139354
ONEWEB-0572             
1 55151U 23004M   25302.82525851  .00000075  00000+0  16067-3 0  9998
2 55151  87.9128  51.6739 0001832  96.5754 263.5586 13.17649460137147
ONEWEB-0573             
1 55152U 23004N   25302.67741209 -.00000009  00000+0 -54736-4 0  9994
2 55152  87.9211  21.2790 0002411  84.1637 275.9770 13.18686342139312
